{
    "links": {
        "self": "http://www.neowsapp.com/rest/v1/neo/54062089?api_key=iIulBulltgU6a56xZRHN4H3l9WmuAYTsLGpBGhQ2"
    },
    "id": "54062089",
    "neo_reference_id": "54062089",
    "name": "(2020 TA5)",
    "designation": "2020 TA5",
    "nasa_jpl_url": "http://ssd.jpl.nasa.gov/sbdb.cgi?sstr=54062089",
    "absolute_magnitude_h": 25.772,
    "estimated_diameter": {
        "kilometers": {
            "estimated_diameter_min": 0.0186275174,
            "estimated_diameter_max": 0.041652395
        },
        "meters": {
            "estimated_diameter_min": 18.6275173512,
            "estimated_diameter_max": 41.6523950493
        },
        "miles": {
            "estimated_diameter_min": 0.0115745991,
            "estimated_diameter_max": 0.0258815904
        },
        "feet": {
            "estimated_diameter_min": 61.1139040264,
            "estimated_diameter_max": 136.6548437735
        }
    },
    "is_potentially_hazardous_asteroid": false,
    "close_approach_data": [
        {
            "close_approach_date": "2020-10-18",
            "close_approach_date_full": "2020-Oct-18 18:25",
            "epoch_date_close_approach": 1603045500000,
            "relative_velocity": {
                "kilometers_per_second": "6.7179201479",
                "kilometers_per_hour": "24184.5125323902",
                "miles_per_hour": "15027.3155788066"
            },
            "miss_distance": {
                "astronomical": "0.0630676552",
                "lunar": "24.5333178728",
                "kilometers": "9434786.883814424",
                "miles": "5862504.7216460912"
            },
            "orbiting_body": "Earth"
        }
    ],
    "orbital_data": {
        "orbit_id": "2",
        "orbit_determination_date": "2020-10-19 08:21:31",
        "first_observation_date": "2020-10-13",
        "last_observation_date": "2020-10-19",
        "data_arc_in_days": 6,
        "observations_used": 27,
        "orbit_uncertainty": "8",
        "minimum_orbit_intersection": ".0608866",
        "jupiter_tisserand_invariant": "3.222",
        "epoch_osculation": "2459136.5",
        "eccentricity": ".5777216998487277",
        "semi_major_axis": "2.484259954834521",
        "inclination": "1.921181509891392",
        "ascending_node_longitude": "313.8462399689282",
        "orbital_period": "1430.190816539149",
        "perihelion_distance": "1.049049070861398",
        "perihelion_argument": "69.93506787747364",
        "aphelion_distance": "3.919470838807643",
        "perihelion_time": "2459140.246676331151",
        "mean_anomaly": "359.0569066283908",
        "mean_motion": ".2517146634119403",
        "equinox": "J2000",
        "orbit_class": {
            "orbit_class_type": "AMO",
            "orbit_class_description": "Near-Earth asteroid orbits similar to that of 1221 Amor",
            "orbit_class_range": "1.017 AU < q (perihelion) < 1.3 AU"
        }
    },
    "is_sentry_object": false
}